id,ident,type,name,lat,long,elevation_ft,continent,iso_country,iso_region,municipality,scheduled_service,gps_code,iata_code,local_code,home_link,wikipedia_link,keywords
4951,MYNN,large_airport,Lynden Pindling International Airport,25.0389995575,-77.46620178219999,16,,BS,BS-NP,Nassau,1,MYNN,NAS,,http://www.nas.bs/,http://en.wikipedia.org/wiki/Lynden_Pindling_International_Airport,Nassau International Airport
4956,MZBZ,large_airport,Philip S. W. Goldson International Airport,17.539100646972656,-88.30819702148438,15,,BZ,BZ-BZ,Belize City,1,MZBZ,BZE,,http://www.pgiabelize.com/,http://en.wikipedia.org/wiki/Philip_S._W._Goldson_International_Airport,"Belize International, Ladyville"
1973,CYYC,large_airport,Calgary International Airport,51.113899231,-114.019996643,3557,,CA,CA-AB,Calgary,1,CYYC,YYC,,http://www.calgaryairport.com/,http://en.wikipedia.org/wiki/Calgary_International_Airport,McCall Field
1717,CYEG,large_airport,Edmonton International Airport,53.309700012200004,-113.580001831,2373,,CA,CA-AB,Edmonton,1,CYEG,YEG,CYEG,http://www.edmontonairports.com/,http://en.wikipedia.org/wiki/Edmonton_International_Airport,YEA
1941,CYVR,large_airport,Vancouver International Airport,49.193901062,-123.183998108,14,,CA,CA-BC,Vancouver,1,CYVR,YVR,,http://www.yvr.ca/,http://en.wikipedia.org/wiki/Vancouver_International_Airport,
1979,CYYJ,large_airport,Victoria International Airport,48.646900177,-123.426002502,63,,CA,CA-BC,Victoria,1,CYYJ,YYJ,,http://www.victoriaairport.com/,http://en.wikipedia.org/wiki/Victoria_International_Airport,
1946,CYWG,large_airport,Winnipeg / James Armstrong Richardson International Airport,49.909999847399995,-97.2398986816,783,,CA,CA-MB,Winnipeg,1,CYWG,YWG,YWG,http://www.waa.ca/,http://en.wikipedia.org/wiki/Winnipeg_James_Armstrong_Richardson_International_Airport,CFB Winnipeg
1986,CYYT,large_airport,St. John's International Airport,47.618598938,-52.7518997192,461,,CA,CA-NL,St. John's,1,CYYT,YYT,,http://www.stjohnsairport.com/,http://en.wikipedia.org/wiki/St._John's_International_Airport,
1770,CYHZ,large_airport,Halifax / Stanfield International Airport,44.8807983398,-63.5085983276,477,,CA,CA-NS,Halifax,1,CYHZ,YHZ,,http://www.hiaa.ca/,http://en.wikipedia.org/wiki/Halifax_International_Airport,Robert L. Stanfield International Airport
1840,CYOW,large_airport,Ottawa Macdonald-Cartier International Airport,45.3224983215,-75.6691970825,374,,CA,CA-ON,Ottawa,1,CYOW,YOW,YOW,http://www.ottawa-airport.ca/,http://en.wikipedia.org/wiki/Ottawa_Macdonald-Cartier_International_Airport,"Uplands, UUP, CUUP"
1990,CYYZ,large_airport,Lester B. Pearson International Airport,43.6772003174,-79.63059997559999,569,,CA,CA-ON,Toronto,1,CYYZ,YYZ,YYZ,http://www.gtaa.com/,http://en.wikipedia.org/wiki/Toronto_Pearson_International_Airport,"YTO, Toronto International Airport, Malton"
1928,CYUL,large_airport,Montreal / Pierre Elliott Trudeau International Airport,45.4706001282,-73.7407989502,118,,CA,CA-QC,Montréal,1,CYUL,YUL,YUL,http://www.admtl.com/passager/Home.aspx,http://en.wikipedia.org/wiki/Montr%C3%A9al-Pierre_Elliott_Trudeau_International_Airport,"YMQ, Dorval Airport"
1864,CYQB,large_airport,Quebec Jean Lesage International Airport,46.791099548300004,-71.39330291750001,244,,CA,CA-QC,Quebec,1,CYQB,YQB,YQB,http://www.aeroportdequebec.com/,http://en.wikipedia.org/wiki/Qu%C3%A9bec/Jean_Lesage_International_Airport,Quebec City
4839,MUHA,large_airport,José Martí International Airport,22.989200592041016,-82.40910339355469,210,,CU,CU-03,Havana,1,MUHA,HAV,,,http://en.wikipedia.org/wiki/Jos%C3%A9_Mart%C3%AD_International_Airport,Habana
4859,MUVR,large_airport,Juan Gualberto Gomez International Airport,23.034400939941406,-81.435302734375,210,,CU,CU-04,Varadero,1,MUVR,VRA,,,http://en.wikipedia.org/wiki/Juan_Gualberto_G%C3%B3mez_Airport,
4638,MDSD,large_airport,Las Américas International Airport,18.42970085144043,-69.66889953613281,59,,DO,DO-01,Santo Domingo,1,MDSD,SDQ,,http://www.aerodom.com/app/do/lasamericas.aspx,http://en.wikipedia.org/wiki/Las_Am%C3%A9ricas_International_Airport,Aeropuerto Internacional de Las Américas
4636,MDPC,large_airport,Punta Cana International Airport,18.567399978599997,-68.36340332030001,47,,DO,DO-11,Punta Cana,1,MDPC,PUJ,,,http://en.wikipedia.org/wiki/Punta_Cana_International_Airport,
4680,MKJP,large_airport,Norman Manley International Airport,17.935699462890625,-76.7874984741211,10,,JM,JM-01,Kingston,1,MKJP,KIN,,,http://en.wikipedia.org/wiki/Norman_Manley_International_Airport,
4862,MWCR,large_airport,Owen Roberts International Airport,19.292800903299998,-81.3576965332,8,,KY,KY-U-A,Georgetown,1,MWCR,GCM,,,http://en.wikipedia.org/wiki/Owen_Roberts_International_Airport,"Grand Cayman, George Town"
4757,MMTJ,large_airport,General Abelardo L. Rodríguez International Airport,32.541099548339844,-116.97000122070312,489,,MX,MX-BCN,Tijuana,1,MMTJ,TIJ,,http://aeropuertosgap.com.mx/english/airports/tijuana-airport,http://en.wikipedia.org/wiki/General_Abelardo_L._Rodr%C3%ADguez_International_Airport,
4750,MMSD,large_airport,Los Cabos International Airport,23.15180015563965,-109.72100067138672,374,,MX,MX-BCS,San José del Cabo,1,MMSD,SJD,,http://loscabos.aeropuertosgap.com.mx/index.php?lang=eng,http://en.wikipedia.org/wiki/Los_Cabos_International_Airport,
4731,MMMX,large_airport,Licenciado Benito Juarez International Airport,19.43630027770996,-99.07209777832031,7316,,MX,MX-DIF,Mexico City,1,MMMX,MEX,,,http://en.wikipedia.org/wiki/Mexico_City_International_Airport,
4688,MMAA,large_airport,General Juan N Alvarez International Airport,16.757099151611328,-99.75399780273438,16,,MX,MX-GRO,Acapulco,1,MMAA,ACA,,,http://en.wikipedia.org/wiki/General_Juan_N._%C3%81lvarez_International_Airport,
4710,MMGL,large_airport,Don Miguel Hidalgo Y Costilla International Airport,20.521799087524414,-103.31099700927734,5016,,MX,MX-JAL,Guadalajara,1,MMGL,GDL,,,http://en.wikipedia.org/wiki/Don_Miguel_Hidalgo_y_Costilla_International_Airport,
4745,MMPR,large_airport,Licenciado Gustavo Díaz Ordaz International Airport,20.680099487304688,-105.25399780273438,23,,MX,MX-JAL,Puerto Vallarta,1,MMPR,PVR,,http://vallarta.aeropuertosgap.com.mx/index.php?lang=eng,http://en.wikipedia.org/wiki/Lic._Gustavo_D%C3%ADaz_Ordaz_International_Airport,
4732,MMMY,large_airport,General Mariano Escobedo International Airport,25.7784996033,-100.107002258,1278,,MX,MX-NLE,Monterrey,1,MMMY,MTY,,,http://en.wikipedia.org/wiki/General_Mariano_Escobedo_International_Airport,
4762,MMUN,large_airport,Cancún International Airport,21.036500930800003,-86.8770980835,22,,MX,MX-ROO,Cancún,1,MMUN,CUN,,http://www.asur.com.mx/asur/ingles/aeropuertos/cancun/cancun.asp,http://en.wikipedia.org/wiki/Canc%C3%BAn_International_Airport,
4713,MMHO,large_airport,General Ignacio P. Garcia International Airport,29.095899581900003,-111.047996521,627,,MX,MX-SON,Hermosillo,1,MMHO,HMO,,,http://en.wikipedia.org/wiki/General_Ignacio_Pesqueira_Garcia_International_Airport,
4793,MPTO,large_airport,Tocumen International Airport,9.0713596344,-79.3834991455,135,,PA,PA-8,Tocumen,1,MPTO,PTY,,,http://en.wikipedia.org/wiki/Tocumen_International_Airport,La Joya No 1
6384,TJSJ,large_airport,Luis Munoz Marin International Airport,18.4393997192,-66.0018005371,9,,PR,PR-U-A,San Juan,1,TJSJ,SJU,SJU,,http://en.wikipedia.org/wiki/Luis_Mu%C3%B1oz_Mar%C3%ADn_International_Airport,Isla Verde
6406,TNCM,large_airport,Princess Juliana International Airport,18.041000366200002,-63.1088981628,13,,SX,SX-U-A,Saint Martin,1,TNCM,SXM,,,http://en.wikipedia.org/wiki/Princess_Juliana_International_Airport,
5388,PANC,large_airport,Ted Stevens Anchorage International Airport,61.174400329589844,-149.99600219726562,152,,US,US-AK,Anchorage,1,PANC,ANC,ANC,,http://en.wikipedia.org/wiki/Ted_Stevens_Anchorage_International_Airport,
5360,PAFA,large_airport,Fairbanks International Airport,64.81510162,-147.8560028,439,,US,US-AK,Fairbanks,1,PAFA,FAI,FAI,,http://en.wikipedia.org/wiki/Fairbanks_International_Airport,
3406,KBHM,large_airport,Birmingham-Shuttlesworth International Airport,33.56290054,-86.75350189,650,,US,US-AL,Birmingham,1,KBHM,BHM,BHM,http://www.flybirmingham.com/,http://en.wikipedia.org/wiki/Birmingham_International_Airport_(US),
3594,KHSV,large_airport,Huntsville International Carl T Jones Field,34.637199401855,-86.775100708008,629,,US,US-AL,Huntsville,1,KHSV,HSV,HSV,http://www.flyhuntsville.com/portal/#.VbaG-_lVhBc,http://en.wikipedia.org/wiki/Huntsville_International_Airport,
3772,KPHX,large_airport,Phoenix Sky Harbor International Airport,33.43429946899414,-112.01200103759766,1135,,US,US-AZ,Phoenix,1,KPHX,PHX,PHX,http://phoenix.gov/skyharborairport/,http://en.wikipedia.org/wiki/Phoenix_Sky_Harbor_International_Airport,
3932,KTUS,large_airport,Tucson International Airport,32.1161003112793,-110.94100189208984,2643,,US,US-AZ,Tucson,1,KTUS,TUS,TUS,,http://en.wikipedia.org/wiki/Tucson_International_Airport,
3632,KLAX,large_airport,Los Angeles International Airport,33.94250107,-118.4079971,125,,US,US-CA,Los Angeles,1,KLAX,LAX,LAX,http://www.iflylax.com/,http://en.wikipedia.org/wiki/Los_Angeles_International_Airport,
3752,KONT,large_airport,Ontario International Airport,34.055999755859375,-117.60099792480469,944,,US,US-CA,Ontario,1,KONT,ONT,ONT,,http://en.wikipedia.org/wiki/LA/Ontario_International_Airport,
3892,KSMF,large_airport,Sacramento International Airport,38.69540023803711,-121.59100341796875,27,,US,US-CA,Sacramento,1,KSMF,SMF,SMF,,http://en.wikipedia.org/wiki/Sacramento_International_Airport,
3862,KSAN,large_airport,San Diego International Airport,32.7336006165,-117.190002441,17,,US,US-CA,San Diego,1,KSAN,SAN,SAN,http://www.san.org/,http://en.wikipedia.org/wiki/San_Diego_International_Airport,Lindbergh Field
3878,KSFO,large_airport,San Francisco International Airport,37.61899948120117,-122.375,13,,US,US-CA,San Francisco,1,KSFO,SFO,SFO,http://www.flysfo.com/,http://en.wikipedia.org/wiki/San_Francisco_International_Airport,"QSF, QBA"
3883,KSJC,large_airport,Norman Y. Mineta San Jose International Airport,37.36259841918945,-121.92900085449219,62,,US,US-CA,San Jose,1,KSJC,SJC,SJC,,http://en.wikipedia.org/wiki/San_Jose_International_Airport,"QSF, QBA"
3486,KDEN,large_airport,Denver International Airport,39.861698150634766,-104.6729965209961,5431,,US,US-CO,Denver,1,KDEN,DEN,DEN,http://www.flydenver.com/,http://en.wikipedia.org/wiki/Denver_International_Airport,
3396,KBDL,large_airport,Bradley International Airport,41.9388999939,-72.68319702149999,173,,US,US-CT,Hartford,1,KBDL,BDL,BDL,http://www.bradleyairport.com/,http://en.wikipedia.org/wiki/Bradley_International_Airport,"HFD, Hartford"
3602,KIAD,large_airport,Washington Dulles International Airport,38.94449997,-77.45580292,312,,US,US-DC,Washington,1,KIAD,IAD,IAD,http://www.mwaa.com/dulles/,http://en.wikipedia.org/wiki/Washington_Dulles_International_Airport,WAS
3620,KJAX,large_airport,Jacksonville International Airport,30.49410057067871,-81.68789672851562,30,,US,US-FL,Jacksonville,1,KJAX,JAX,JAX,,http://en.wikipedia.org/wiki/Jacksonville_International_Airport,
3685,KMIA,large_airport,Miami International Airport,25.79319953918457,-80.29060363769531,8,,US,US-FL,Miami,1,KMIA,MIA,MIA,http://www.miami-airport.com/,http://en.wikipedia.org/wiki/Miami_International_Airport,"MFW, South Florida"
3670,KMCO,large_airport,Orlando International Airport,28.429399490356445,-81.30899810791016,96,,US,US-FL,Orlando,1,KMCO,MCO,MCO,http://www.orlandoairports.net/,http://en.wikipedia.org/wiki/Orlando_International_Airport,"Disney World,Epcot Center"
3926,KTPA,large_airport,Tampa International Airport,27.975500106811523,-82.533203125,26,,US,US-FL,Tampa,1,KTPA,TPA,TPA,,http://en.wikipedia.org/wiki/Tampa_International_Airport,
3384,KATL,large_airport,Hartsfield Jackson Atlanta International Airport,33.63669967651367,-84.4281005859375,1026,,US,US-GA,Atlanta,1,KATL,ATL,ATL,http://www.atlanta-airport.com/,http://en.wikipedia.org/wiki/Hartsfield-Jackson_Atlanta_International_Airport,
3864,KSAV,large_airport,Savannah Hilton Head International Airport,32.12760162,-81.20210266,50,,US,US-GA,Savannah,1,KSAV,SAV,SAV,,http://en.wikipedia.org/wiki/Savannah/Hilton_Head_International_Airport,
3496,KDSM,large_airport,Des Moines International Airport,41.534000396728516,-93.66310119628906,958,,US,US-IA,Des Moines,1,KDSM,DSM,DSM,,http://en.wikipedia.org/wiki/Des_Moines_International_Airport,
3754,KORD,large_airport,Chicago O'Hare International Airport,41.97859955,-87.90480042,672,,US,US-IL,Chicago,1,KORD,ORD,ORD,http://www.flychicago.com/ohare/en/home/Pages/default.aspx,http://en.wikipedia.org/wiki/O'Hare_International_Airport,"CHI, Orchard Place"
3695,KMLI,large_airport,Quad City International Airport,41.44850158691406,-90.50749969482422,590,,US,US-IL,Moline,1,KMLI,MLI,MLI,,http://en.wikipedia.org/wiki/Quad_City_International_Airport,
3773,KPIA,large_airport,General Wayne A. Downing Peoria International Airport,40.664199829100006,-89.6932983398,660,,US,US-IL,Peoria,1,KPIA,PIA,PIA,,http://en.wikipedia.org/wiki/General_Wayne_A._Downing_Peoria_International_Airport,Peoria International Airport
3547,KFWA,large_airport,Fort Wayne International Airport,40.97850037,-85.19509888,814,,US,US-IN,Fort Wayne,1,KFWA,FWA,FWA,https://fwairport.com/,http://en.wikipedia.org/wiki/Fort_Wayne_International_Airport,Baer Field
3610,KIND,large_airport,Indianapolis International Airport,39.71730041503906,-86.29440307617188,797,,US,US-IN,Indianapolis,1,KIND,IND,IND,,http://en.wikipedia.org/wiki/Indianapolis_International_Airport,
3471,KCVG,large_airport,Cincinnati Northern Kentucky International Airport,39.0488014221,-84.6678009033,896,,US,US-KY,Cincinnati,1,KCVG,CVG,CVG,,http://en.wikipedia.org/wiki/Cincinnati/Northern_Kentucky_International_Airport,
3873,KSDF,large_airport,Louisville International Standiford Field,38.174400329589844,-85.73600006103516,501,,US,US-KY,Louisville,1,KSDF,SDF,SDF,,http://en.wikipedia.org/wiki/Louisville_International_Airport,
3711,KMSY,large_airport,Louis Armstrong New Orleans International Airport,29.99340057373047,-90.25800323486328,4,,US,US-LA,New Orleans,1,KMSY,MSY,MSY,,http://en.wikipedia.org/wiki/Louis_Armstrong_New_Orleans_International_Airport,
3422,KBOS,large_airport,General Edward Lawrence Logan International Airport,42.36429977,-71.00520325,20,,US,US-MA,Boston,1,KBOS,BOS,BOS,http://www.massport.com/logan/,http://en.wikipedia.org/wiki/Logan_International_Airport,General Edward Lawrence Logan International Airport
3435,KBWI,large_airport,Baltimore/Washington International Thurgood Marshall Airport,39.17539978,-76.66829681,146,,US,US-MD,Baltimore,1,KBWI,BWI,BWI,,http://en.wikipedia.org/wiki/Baltimore-Washington_International_Thurgood_Marshall_Airport,WAS
3405,KBGR,large_airport,Bangor International Airport,44.80739974975586,-68.8281021118164,192,,US,US-ME,Bangor,1,KBGR,BGR,BGR,,http://en.wikipedia.org/wiki/Bangor_International_Airport,
3796,KPWM,large_airport,Portland International Jetport Airport,43.64619827,-70.30930328,76,,US,US-ME,Portland,1,KPWM,PWM,PWM,,http://en.wikipedia.org/wiki/Portland_International_Jetport,
3664,KMBS,large_airport,MBS International Airport,43.532901763916016,-84.07959747314453,668,,US,US-MI,Saginaw,1,KMBS,MBS,MBS,http://www.mbsairport.org/,http://en.wikipedia.org/wiki/MBS_International_Airport,"Tri City Airport, Midland, Bay City"
3491,KDLH,large_airport,Duluth International Airport,46.8420982361,-92.19360351559999,1428,,US,US-MN,Duluth,1,KDLH,DLH,DLH,http://www.duluthairport.com/,http://en.wikipedia.org/wiki/Duluth_International_Airport,"LKI, Duluth Air National Guard Base, Lakeside AFB"
3709,KMSP,large_airport,Minneapolis-St Paul International/Wold-Chamberlain Airport,44.881999969499994,-93.22180175780001,841,,US,US-MN,Minneapolis,1,KMSP,MSP,MSP,http://www.mspairport.com/,http://en.wikipedia.org/wiki/Minneapolis-Saint_Paul_International_Airport,
3857,KRST,large_airport,Rochester International Airport,43.90829849243164,-92.5,1317,,US,US-MN,Rochester,1,KRST,RST,RST,,http://en.wikipedia.org/wiki/Rochester_International_Airport,
3668,KMCI,large_airport,Kansas City International Airport,39.29759979248047,-94.71389770507812,1026,,US,US-MO,Kansas City,1,KMCI,MCI,MCI,,,
3905,KSTL,large_airport,Lambert St Louis International Airport,38.74869918823242,-90.37000274658203,618,,US,US-MO,St Louis,1,KSTL,STL,STL,http://www.lambert-stlouis.com/,http://en.wikipedia.org/wiki/Lambert-St._Louis_International_Airport,
3561,KGPT,large_airport,Gulfport Biloxi International Airport,30.40730094909668,-89.07009887695312,28,,US,US-MS,Gulfport,1,KGPT,GPT,GPT,,http://en.wikipedia.org/wiki/Gulfport-Biloxi_International_Airport,
3619,KJAN,large_airport,Jackson-Medgar Wiley Evers International Airport,32.3111991882,-90.0758972168,346,,US,US-MS,Jackson,1,KJAN,JAN,JAN,,http://en.wikipedia.org/wiki/Jackson-Evers_International_Airport,
3408,KBIL,large_airport,Billings Logan International Airport,45.807701110839844,-108.54299926757812,3652,,US,US-MT,Billings,1,KBIL,BIL,BIL,,http://en.wikipedia.org/wiki/Billings_Logan_International_Airport,
3457,KCLT,large_airport,Charlotte Douglas International Airport,35.2140007019043,-80.94309997558594,748,,US,US-NC,Charlotte,1,KCLT,CLT,CLT,http://www.charlotteairport.com/,http://en.wikipedia.org/wiki/Charlotte/Douglas_International_Airport,
3568,KGSO,large_airport,Piedmont Triad International Airport,36.097801208496094,-79.93730163574219,925,,US,US-NC,Greensboro,1,KGSO,GSO,GSO,,http://en.wikipedia.org/wiki/Piedmont_Triad_International_Airport,
3844,KRDU,large_airport,Raleigh Durham International Airport,35.877601623535156,-78.7874984741211,435,,US,US-NC,Raleigh/Durham,1,KRDU,RDU,RDU,,http://en.wikipedia.org/wiki/Raleigh-Durham_International_Airport,
3521,KEWR,large_airport,Newark Liberty International Airport,40.692501068115234,-74.168701171875,18,,US,US-NJ,Newark,1,KEWR,EWR,EWR,http://www.panynj.gov/CommutingTravel/airports/html/newarkliberty.html,http://en.wikipedia.org/wiki/Newark_Liberty_International_Airport,"Manhattan, New York City, NYC"
16091,KABQ,large_airport,Albuquerque International Sunport Airport,35.040199279785156,-106.60900115966797,5355,,US,US-NM,Albuquerque,1,KABQ,ABQ,ABQ,,http://en.wikipedia.org/wiki/Albuquerque_International_Sunport,
3631,KLAS,large_airport,McCarran International Airport,36.08010101,-115.1520004,2181,,US,US-NV,Las Vegas,1,KLAS,LAS,LAS,http://www.mccarran.com/,http://en.wikipedia.org/wiki/McCarran_International_Airport,
3853,KRNO,large_airport,Reno Tahoe International Airport,39.49909973144531,-119.76799774169922,4415,,US,US-NV,Reno,1,KRNO,RNO,RNO,,http://en.wikipedia.org/wiki/Reno-Tahoe_International_Airport,
3431,KBUF,large_airport,Buffalo Niagara International Airport,42.94049835,-78.73220062,728,,US,US-NY,Buffalo,1,KBUF,BUF,BUF,,http://en.wikipedia.org/wiki/Buffalo_Niagara_International_Airport,
3622,KJFK,large_airport,John F Kennedy International Airport,40.63980103,-73.77890015,13,,US,US-NY,New York,1,KJFK,JFK,JFK,http://www.panynj.gov/CommutingTravel/airports/html/kennedy.html,http://en.wikipedia.org/wiki/John_F._Kennedy_International_Airport,"Manhattan, New York City, NYC, Idlewild"
3855,KROC,large_airport,Greater Rochester International Airport,43.118900299072266,-77.67240142822266,559,,US,US-NY,Rochester,1,KROC,ROC,ROC,,http://en.wikipedia.org/wiki/Greater_Rochester_International_Airport,
3454,KCLE,large_airport,Cleveland Hopkins International Airport,41.4117012024,-81.8498001099,791,,US,US-OH,Cleveland,1,KCLE,CLE,CLE,http://www.clevelandairport.com/,http://en.wikipedia.org/wiki/Cleveland_Hopkins_International_Airport,
3458,KCMH,large_airport,Port Columbus International Airport,39.99800109863281,-82.89189910888672,815,,US,US-OH,Columbus,1,KCMH,CMH,CMH,,http://en.wikipedia.org/wiki/Port_Columbus_International_Airport,
3481,KDAY,large_airport,James M Cox Dayton International Airport,39.902400970458984,-84.21939849853516,1009,,US,US-OH,Dayton,1,KDAY,DAY,DAY,,http://en.wikipedia.org/wiki/Dayton_International_Airport,
3930,KTUL,large_airport,Tulsa International Airport,36.19839859008789,-95.88809967041016,677,,US,US-OK,Tulsa,1,KTUL,TUL,TUL,,http://en.wikipedia.org/wiki/Tulsa_International_Airport,
3768,KPDX,large_airport,Portland International Airport,45.58869934,-122.5979996,31,,US,US-OR,Portland,1,KPDX,PDX,PDX,,http://en.wikipedia.org/wiki/Portland_International_Airport,
3515,KERI,large_airport,Erie International Tom Ridge Field,42.0831270134,-80.1738667488,732,,US,US-PA,Erie,1,KERI,ERI,ERI,,http://en.wikipedia.org/wiki/Erie_International_Airport,
3771,KPHL,large_airport,Philadelphia International Airport,39.87189865112305,-75.24109649658203,36,,US,US-PA,Philadelphia,1,KPHL,PHL,PHL,http://www.phl.org/,http://en.wikipedia.org/wiki/Philadelphia_International_Airport,
3778,KPIT,large_airport,Pittsburgh International Airport,40.49150085,-80.23290253,1203,,US,US-PA,Pittsburgh,1,KPIT,PIT,PIT,,http://en.wikipedia.org/wiki/Pittsburgh_International_Airport,
3450,KCHS,large_airport,Charleston Air Force Base-International Airport,32.89860153,-80.04049683,46,,US,US-SC,Charleston,1,KCHS,CHS,CHS,,http://en.wikipedia.org/wiki/Charleston_International_Airport,Charleston Air Force Base
3569,KGSP,large_airport,Greenville Spartanburg International Airport,34.8956985474,-82.2189025879,964,,US,US-SC,Greenville,1,KGSP,GSP,GSP,,http://en.wikipedia.org/wiki/Greenville-Spartanburg_International_Airport,
3675,KMEM,large_airport,Memphis International Airport,35.04240036010742,-89.97669982910156,341,,US,US-TN,Memphis,1,KMEM,MEM,MEM,,http://en.wikipedia.org/wiki/Memphis_International_Airport,
3420,KBNA,large_airport,Nashville International Airport,36.1245002746582,-86.6781997680664,599,,US,US-TN,Nashville,1,KBNA,BNA,BNA,,http://en.wikipedia.org/wiki/Nashville_International_Airport,
3604,KIAH,large_airport,George Bush Intercontinental Houston Airport,29.984399795532227,-95.34140014648438,97,,US,US-TX,Houston,1,KIAH,IAH,IAH,http://www.fly2houston.com/iah,http://en.wikipedia.org/wiki/George_Bush_Intercontinental_Airport,QHO
3386,KAUS,large_airport,Austin Bergstrom International Airport,30.194499969482422,-97.6698989868164,542,,US,US-TX,Austin,1,KAUS,AUS,AUS,http://www.ci.austin.tx.us/austinairport/,http://en.wikipedia.org/wiki/Austin-Bergstrom_International_Airport,
3488,KDFW,large_airport,Dallas Fort Worth International Airport,32.89680099487305,-97.03800201416016,607,,US,US-TX,Dallas-Fort Worth,1,KDFW,DFW,DFW,http://www.dfwairport.com/,http://en.wikipedia.org/wiki/Dallas-Fort_Worth_International_Airport,QDF
3863,KSAT,large_airport,San Antonio International Airport,29.533700942993164,-98.46980285644531,809,,US,US-TX,San Antonio,1,KSAT,SAT,SAT,,http://en.wikipedia.org/wiki/San_Antonio_International_Airport,
3887,KSLC,large_airport,Salt Lake City International Airport,40.78839874267578,-111.97799682617188,4227,,US,US-UT,Salt Lake City,1,KSLC,SLC,SLC,,http://en.wikipedia.org/wiki/Salt_Lake_City_International_Airport,
3770,KPHF,large_airport,Newport News Williamsburg International Airport,37.13190079,-76.49299622,42,,US,US-VA,Newport News,1,KPHF,PHF,PHF,,http://en.wikipedia.org/wiki/Newport_News/Williamsburg_International_Airport,
3755,KORF,large_airport,Norfolk International Airport,36.89459991455078,-76.20120239257812,26,,US,US-VA,Norfolk,1,KORF,ORF,ORF,,http://en.wikipedia.org/wiki/Norfolk_International_Airport,
3847,KRIC,large_airport,Richmond International Airport,37.50519943237305,-77.3197021484375,167,,US,US-VA,Richmond,1,KRIC,RIC,RIC,,http://en.wikipedia.org/wiki/Richmond_International_Airport,
3401,KBFI,large_airport,Boeing Field King County International Airport,47.529998779296875,-122.302001953125,21,,US,US-WA,Seattle,1,KBFI,BFI,BFI,,http://en.wikipedia.org/wiki/Boeing_Field,
3875,KSEA,large_airport,Seattle Tacoma International Airport,47.44900131225586,-122.30899810791016,433,,US,US-WA,Seattle,1,KSEA,SEA,SEA,http://www.portseattle.org/seatac/,http://en.wikipedia.org/wiki/Seattle-Tacoma_International_Airport,
3552,KGEG,large_airport,Spokane International Airport,47.61989974975586,-117.53399658203125,2376,,US,US-WA,Spokane,1,KGEG,GEG,GEG,,http://en.wikipedia.org/wiki/Spokane_International_Airport,
3562,KGRB,large_airport,Austin Straubel International Airport,44.48509979248047,-88.12960052490234,695,,US,US-WI,Green Bay,1,KGRB,GRB,GRB,,http://en.wikipedia.org/wiki/Austin_Straubel_International_Airport,
3690,KMKE,large_airport,General Mitchell International Airport,42.947200775146484,-87.89659881591797,723,,US,US-WI,Milwaukee,1,KMKE,MKE,MKE,,http://en.wikipedia.org/wiki/General_Mitchell_International_Airport,
3465,KCPR,large_airport,Casper-Natrona County International Airport,42.90800095,-106.4639969,5350,,US,US-WY,Casper,1,KCPR,CPR,CPR,,http://en.wikipedia.org/wiki/Natrona_County_International_Airport,
3186,HEGN,large_airport,Hurghada International Airport,27.178300857543945,33.799400329589844,52,AF,EG,EG-BA,Hurghada,1,HEGN,HRG,,,http://en.wikipedia.org/wiki/Hurghada_International_Airport,"Al Ghardaqah, الغردقة"
3183,HECA,large_airport,Cairo International Airport,30.12190055847168,31.40559959411621,382,AF,EG,EG-C,Cairo,1,HECA,CAI,,,http://en.wikipedia.org/wiki/Cairo_International_Airport,
3157,HAAB,large_airport,Addis Ababa Bole International Airport,8.97789001465,38.799301147499996,7630,AF,ET,ET-AA,Addis Ababa,1,HAAB,ADD,,http://www.ethiopianairports.com,http://en.wikipedia.org/wiki/Bole_International_Airport,"Haile Selassie I, Bole International Airport"
2090,DGAA,large_airport,Kotoka International Airport,5.605189800262451,-0.16678600013256073,205,AF,GH,GH-AA,Accra,1,DGAA,ACC,,,http://en.wikipedia.org/wiki/Kotoka_International_Airport,
3206,HKJK,large_airport,Jomo Kenyatta International Airport,-1.31923997402,36.9277992249,5330,AF,KE,KE-110,Nairobi,1,HKJK,NBO,,http://www.kenyaairports.com/jkia/IndexJkia.php,http://en.wikipedia.org/wiki/Jomo_Kenyatta_International_Airport,"Jkia Airport, Embakasi Airport, Nairobi International Airport"
3213,HKMO,large_airport,Mombasa Moi International Airport,-4.034830093383789,39.594200134277344,200,AF,KE,KE-300,Mombasa,1,HKMO,MBA,,http://www.kenyaairports.co.ke/kaa/airports/moi/,http://en.wikipedia.org/wiki/Moi_International_Airport,
3227,HLLT,large_airport,Tripoli International Airport,32.6635017395,13.1590003967,263,AF,LY,LY-TB,Tripoli,1,HLLT,TIP,,,http://en.wikipedia.org/wiki/Tripoli_International_Airport,
3113,GMMN,large_airport,Mohammed V International Airport,33.36750030517578,-7.589970111846924,656,AF,MA,MA-CAS,Casablanca,1,GMMN,CMN,,http://www.onda.ma/ONDA/Fr/Espaces/EspacePassagers/LeReseauAeroportuaireONDA/Lesaeroports/Fiches+d%E2%80%99identit%C3%A9+par+a%C,http://en.wikipedia.org/wiki/Mohammed_V_International_Airport,"CAS, Casabianca, Nouasseur"
309668,DNAI,large_airport,Akwa Ibom International Airport,4.8725,8.093,170,AF,NG,NG-AK,Uyo,1,DNAI,QUO,,http://www.ibomairport.com.ng/,http://en.wikipedia.org/wiki/Akwa_Ibom_Airport,
2104,DNAA,large_airport,Nnamdi Azikiwe International Airport,9.006790161132812,7.263169765472412,1123,AF,NG,NG-FC,Abuja,1,DNAA,ABV,,http://www.faannigeria.org/nigeria-airport.php?airport=3,http://en.wikipedia.org/wiki/Nnamdi_Azikiwe_International_Airport,
2118,DNMM,large_airport,Murtala Muhammed International Airport,6.5773701667785645,3.321160078048706,135,AF,NG,NG-LA,Lagos,1,DNMM,LOS,,http://www.faannigeria.org/nigeria-airport.php?airport=1,http://en.wikipedia.org/wiki/Murtala_Mohammed_International_Airport,
3249,HSSS,large_airport,Khartoum International Airport,15.589500427246094,32.553199768066406,1265,AF,SD,SD-03,Khartoum,1,HSSS,KRT,,,http://en.wikipedia.org/wiki/Khartoum_International_Airport,
3125,GOOY,large_airport,Léopold Sédar Senghor International Airport,14.739700317382812,-17.49020004272461,85,AF,SN,SN-DK,Dakar,1,GOOY,DKR,,http://www.aeroportdakar.com/,http://en.wikipedia.org/wiki/Dakar-Yoff-L%C3%A9opold_S%C3%A9dar_Senghor_International_Airport,
3247,HSSJ,large_airport,Juba International Airport,4.87201023102,31.6011009216,1513,AF,SS,SS-17,Juba,1,HSSJ,JUB,,,http://en.wikipedia.org/wiki/Juba_Airport,JIA
2133,DTTA,large_airport,Tunis Carthage International Airport,36.85100173950195,10.22719955444336,22,AF,TN,TN-11,Tunis,1,DTTA,TUN,,http://www.oaca.nat.tn/english/div_horizontal_tunis_airport_eng.htm,http://en.wikipedia.org/wiki/Tunis-Carthage_International_Airport,"Aéroport international de Tunis-Carthage, مطار تونس قرطاج الدولي"
44483,TN-0002,large_airport,Enfidha - Hammamet International Airport,36.075833,10.438611,21,AF,TN,TN-51,Enfidha,1,DTNH,NBE,,http://www.enfidhahammametairport.com/,http://en.wikipedia.org/wiki/Enfidha_%E2%80%93_Hammamet_International_Airport,DTNZ
2792,FAJS,large_airport,OR Tambo International Airport,-26.1392002106,28.246000289900003,5558,AF,ZA,ZA-GT,Johannesburg,1,FAOR,JNB,,http://www.acsa.co.za/home.asp?pid=228,http://en.wikipedia.org/wiki/OR_Tambo_International_Airport,"Johannesburg International Airport, Jan Smuts International Airport"
300795,FALE,large_airport,King Shaka International Airport,-29.6144444444,31.1197222222,295,AF,ZA,ZA-NL,Durban,1,FALE,DUR,,,http://en.wikipedia.org/wiki/King_Shaka_International_Airport,La Mercy Airport
2775,FACT,large_airport,Cape Town International Airport,-33.9648017883,18.6016998291,151,AF,ZA,ZA-WC,Cape Town,1,FACT,CPT,,http://www.airports.co.za/home.asp?pid=229,http://en.wikipedia.org/wiki/Cape_Town_International_Airport,"Kaapstad Internasionale Lughawe, CTIA, DF Malan Airport"
5226,OMAA,large_airport,Abu Dhabi International Airport,24.433000564575195,54.651100158691406,88,AS,AE,AE-AZ,Abu Dhabi,1,OMAA,AUH,,http://www.abudhabiairport.ae/,http://en.wikipedia.org/wiki/Abu_Dhabi_International_Airport,
5235,OMDB,large_airport,Dubai International Airport,25.2527999878,55.3643989563,62,AS,AE,AE-DU,Dubai,1,OMDB,DXB,,http://www.dubaiairport.com/dia/english/home/,http://en.wikipedia.org/wiki/Dubai_International_Airport,مطار دبي الدولي‎
300320,OMDW,large_airport,Al Maktoum International Airport,24.896666666699996,55.1613888889,114,AS,AE,AE-DU,Jebel Ali,0,OMDW,DWC,,,http://en.wikipedia.org/wiki/Al_Maktoum_International_Airport,
5239,OMSJ,large_airport,Sharjah International Airport,25.32859992980957,55.5172004699707,111,AS,AE,AE-SH,Sharjah,1,OMSJ,SHJ,,,http://en.wikipedia.org/wiki/Sharjah_International_Airport,
6446,UDYZ,large_airport,Zvartnots International Airport,40.1473007202,44.3959007263,2838,AS,AM,AM-ER,Yerevan,1,UDYZ,EVN,,http://www.aia-zvartnots.aero/,http://en.wikipedia.org/wiki/Zvartnots_International_Airport,"UGEE, Erevan Airport, Erivan Airport, Аэропорт Звартноц, Аэропорт Ереван"
6440,UBBB,large_airport,Heydar Aliyev International Airport,40.467498779296875,50.04669952392578,10,AS,AZ,AZ-BA,Baku,1,UBBB,GYD,,http://www.airport-baku.com/,http://en.wikipedia.org/wiki/Heydar_Aliyev_International_Airport,"BAK, Bina International Airport, Heydər Əliyev adına beynəlxalq hava limanı"
5079,OBBI,large_airport,Bahrain International Airport,26.27079963684082,50.63359832763672,6,AS,BH,BH-15,Manama,1,OBBI,BAH,,http://www.bahrainairport.com/,http://en.wikipedia.org/wiki/Bahrain_International_Airport,مطار البحرين الدولي
26819,WBSB,large_airport,Brunei International Airport,4.944200038909912,114.9280014038086,73,AS,BN,BN-BM,Bandar Seri Begawan,1,WBSB,BWN,,,http://en.wikipedia.org/wiki/Brunei_International_Airport,
27188,ZBAA,large_airport,Beijing Capital International Airport,40.080101013183594,116.58499908447266,116,AS,CN,CN-11,Beijing,1,ZBAA,PEK,,http://en.bcia.com.cn/,http://en.wikipedia.org/wiki/Beijing_Capital_International_Airport,"BJS, Bejing, Peking, Olympics"
27192,ZBTJ,large_airport,Tianjin Binhai International Airport,39.124401092499994,117.346000671,10,AS,CN,CN-12,Tianjin,1,ZBTJ,TSN,,,http://en.wikipedia.org/wiki/Tianjin_Binhai_International_Airport,
27225,ZSSS,large_airport,Shanghai Hongqiao International Airport,31.197900772094727,121.33599853515625,10,AS,CN,CN-31,Shanghai,1,ZSSS,SHA,,,http://en.wikipedia.org/wiki/Shanghai_Hongqiao_International_Airport,
27218,ZSHC,large_airport,Hangzhou Xiaoshan International Airport,30.22949981689453,120.43399810791016,23,AS,CN,CN-33,Hangzhou,1,ZSHC,HGH,,http://www.hzairport.com/,http://en.wikipedia.org/wiki/Hangzhou_Xiaoshan_International_Airport,"Hang Zhou, 杭州萧山国际机场"
27220,ZSNB,large_airport,Ningbo Lishe International Airport,29.82670021057129,121.46199798583984,13,AS,CN,CN-33,Ningbo,1,ZSNB,NGB,,,http://en.wikipedia.org/wiki/Ningbo_Lishe_International_Airport,
27217,ZSFZ,large_airport,Fuzhou Changle International Airport,25.935100555419922,119.66300201416016,46,AS,CN,CN-35,Fuzhou,1,ZSFZ,FOC,,http://www.xiafz.com.cn/en/index.asp,http://en.wikipedia.org/wiki/Fuzhou_Changle_International_Airport,
27215,ZSAM,large_airport,Xiamen Gaoqi International Airport,24.54400062561035,118.12799835205078,59,AS,CN,CN-35,Xiamen,1,ZSAM,XMN,,http://www.xiagc.com.cn/enweb/,http://en.wikipedia.org/wiki/Xiamen_Gaoqi_International_Airport,厦门高崎国际机场
27199,ZHCC,large_airport,Zhengzhou Xinzheng International Airport,34.519699096699995,113.841003418,495,AS,CN,CN-41,Zhengzhou,1,ZHCC,CGO,,,http://en.wikipedia.org/wiki/Zhengzhou_Xinzheng_International_Airport,Xinzheng Airport
27200,ZHHH,large_airport,Wuhan Tianhe International Airport,30.78380012512207,114.20800018310547,113,AS,CN,CN-42,Wuhan,1,ZHHH,WUH,,,http://en.wikipedia.org/wiki/Wuhan_Tianhe_International_Airport,
27195,ZGHA,large_airport,Changsha Huanghua International Airport,28.189199447599997,113.220001221,217,AS,CN,CN-43,Changsha,1,ZGHA,CSX,,,http://en.wikipedia.org/wiki/Changsha_Huanghua_International_Airport,长沙黄花国际机场
27194,ZGGG,large_airport,Guangzhou Baiyun International Airport,23.39240074157715,113.29900360107422,50,AS,CN,CN-44,Guangzhou,1,ZGGG,CAN,,http://www.baiyunairport.com/english/index.jsp,http://en.wikipedia.org/wiki/Guangzhou_Baiyun_International_Airport,
27198,ZGSZ,large_airport,Shenzhen Bao'an International Airport,22.639299392700195,113.81099700927734,13,AS,CN,CN-44,Shenzhen,1,ZGSZ,SZX,,http://eng.szairport.com/,http://en.wikipedia.org/wiki/Shenzhen_Bao'an_International_Airport,"Baoan, Huangtian Airport"
27196,ZGKL,large_airport,Guilin Liangjiang International Airport,25.21809959411621,110.03900146484375,570,AS,CN,CN-45,Guilin City,1,ZGKL,KWL,,,http://en.wikipedia.org/wiki/Guilin_Liangjiang_International_Airport,
27201,ZJHK,large_airport,Haikou Meilan International Airport,19.934900283813477,110.45899963378906,75,AS,CN,CN-46,Haikou,1,ZJHK,HAK,,,http://en.wikipedia.org/wiki/Haikou_Meilan_International_Airport,ZGHK
27202,ZJSY,large_airport,Sanya Phoenix International Airport,18.302900314331055,109.41200256347656,92,AS,CN,CN-46,Sanya,1,ZJSY,SYX,,,http://en.wikipedia.org/wiki/Sanya_Phoenix_International_Airport,
27228,ZUCK,large_airport,Chongqing Jiangbei International Airport,29.719200134277344,106.64199829101562,1365,AS,CN,CN-50,Chongqing,1,ZUCK,CKG,,,http://en.wikipedia.org/wiki/Chongqing_Jiangbei_International_Airport,
27230,ZUUU,large_airport,Chengdu Shuangliu International Airport,30.578500747680664,103.9469985961914,1625,AS,CN,CN-51,Chengdu,1,ZUUU,CTU,,http://www.cdairport.com/cdairport/en_front/index.jsp,http://en.wikipedia.org/wiki/Chengdu_Shuangliu_International_Airport,成都双流国际机场
27214,ZPPP,large_airport,Kunming Changshui International Airport,25.1019444,102.9291667,6903,AS,CN,CN-53,Kunming,1,ZPPP,KMG,,,https://en.wikipedia.org/wiki/Kunming_Changshui_International_Airport,
27205,ZLXY,large_airport,Xi'an Xianyang International Airport,34.44710159301758,108.75199890136719,1572,AS,CN,CN-61,Xianyang,1,ZLXY,XIY,,http://www.xian-airport.com/,http://en.wikipedia.org/wiki/Xi'an_Xianyang_International_Airport,"西安咸阳国际机场, Xian"
27236,ZWWW,large_airport,Ürümqi Diwopu International Airport,43.907100677490234,87.47419738769531,2125,AS,CN,CN-65,Ürümqi,1,ZWWW,URC,,,http://en.wikipedia.org/wiki/%C3%9Cr%C3%BCmqi_Diwopu_International_Airport,
3980,LCLK,large_airport,Larnaca International Airport,34.875099182128906,33.624900817871094,8,AS,CY,CY-04,Larnarca,1,LCLK,LCA,,http://www.cyprusairports.com.cy/showpage.php?PageID=2,http://en.wikipedia.org/wiki/Larnaca_International_Airport,Διεθνές Aεροδρόμιο Λάρνακας
3981,LCPH,large_airport,Paphos International Airport,34.71799850463867,32.48569869995117,41,AS,CY,CY-06,Paphos,1,LCPH,PFO,,http://paphosinternationalairport.com/index_papxmas.html,http://en.wikipedia.org/wiki/Paphos_International_Airport,"Pafos, Mandria, Kouklia, Διεθνής Αερολιμένας Πάφου"
6453,UGTB,large_airport,Tbilisi International Airport,41.6692008972,44.95470047,1624,AS,GE,GE-TB,Tbilisi,1,UGTB,TBS,,http://www.tbilisiairport.com/,http://en.wikipedia.org/wiki/Tbilisi_International_Airport,თბილისის საერთაშორისო აეროპორტი
26535,VHHH,large_airport,Chek Lap Kok International Airport,22.3089008331,113.915000916,28,AS,HK,HK-U-A,Hong Kong,1,VHHH,HKG,,http://www.hongkongairport.com/,http://en.wikipedia.org/wiki/Hong_Kong_International_Airport,"Chek Lap Kok Airport, 赤鱲角機場"
26751,WADD,large_airport,Ngurah Rai (Bali) International Airport,-8.7481698989868,115.16699981689,14,AS,ID,ID-BA,Denpasar-Bali Island,1,WADD,DPS,,http://www.angkasapura1.co.id/eng/location/bali.htm,http://en.wikipedia.org/wiki/Ngurah_Rai_Airport,WRRR
26835,WIII,large_airport,Soekarno-Hatta International Airport,-6.1255698204,106.65599823,34,AS,ID,ID-BT,Jakarta,1,WIII,CGK,,http://www.jakartasoekarnohattaairport.com/,http://en.wikipedia.org/wiki/Soekarno-Hatta_International_Airport,"JKT, Cengkareng, Java"
26789,WARR,large_airport,Juanda International Airport,-7.3798298835754395,112.78700256347656,9,AS,ID,ID-JI,Surabaya,1,WARR,SUB,,http://www.juanda-airport.com/,http://en.wikipedia.org/wiki/Juanda_International_Airport,WRSJ
309298,ID-0017,large_airport,Sungai Siring International Airport,-0.373611,117.255556,82,AS,ID,ID-KI,Samarinda,1,,,,http://www.proyek.dishubprovkaltim.info/?pro=1,http://en.wikipedia.org/wiki/Samarinda_International_Airport,"Sungai Siring Airport, فرودگاه سیرینگ"
26745,WAAA,large_airport,Hasanuddin International Airport,-5.061629772186279,119.55400085449219,47,AS,ID,ID-SN,Ujung Pandang-Celebes Island,1,WAAA,UPG,,,http://en.wikipedia.org/wiki/Hasanuddin_International_Airport,
309577,ID-0018,large_airport,Medan/Kuala Namu International Airport,3.642222,98.885278,,AS,ID,ID-SU,,0,WIMM,KNO,,,http://en.wikipedia.org/wiki/Kuala_Namu_International_Airport,
4423,LLOV,large_airport,Ovda International Airport,29.94029998779297,34.93579864501953,1492,AS,IL,IL-D,Eilat,1,LLOV,VDA,,,http://en.wikipedia.org/wiki/Ovda_International_Airport,Ovda Air Force Base
4411,LLBG,large_airport,Ben Gurion International Airport,32.01139831542969,34.88669967651367,135,AS,IL,IL-M,Tel Aviv,1,LLBG,TLV,,http://www.iaa.gov.il/Rashat/en-US/Airports/BenGurion/,http://en.wikipedia.org/wiki/Ben_Gurion_International_Airport,
26555,VIDP,large_airport,Indira Gandhi International Airport,28.566499710083008,77.10310363769531,777,AS,IN,IN-DL,New Delhi,1,VIDP,DEL,,,http://en.wikipedia.org/wiki/Indira_Gandhi_International_Airport,Palam Air Force Station
35145,VOBL,large_airport,Bengaluru International Airport,13.197899818399998,77.7062988281,3000,AS,IN,IN-KA,Bangalore,1,VOBL,BLR,,http://www.bengaluruairport.com/home/home.jspx,http://en.wikipedia.org/wiki/Bengaluru_International_Airport,
26610,VOCL,large_airport,Calicut International Airport,11.1367998123,75.95529937740001,342,AS,IN,IN-KL,Calicut,1,VOCL,CCJ,,,http://en.wikipedia.org/wiki/Calicut_International_Airport,
26609,VOCI,large_airport,Cochin International Airport,10.1520004272,76.40190124510002,30,AS,IN,IN-KL,Cochin,1,VOCI,COK,,http://www.cochin-airport.com/,http://en.wikipedia.org/wiki/Cochin_International_Airport,Cochin
26629,VOTV,large_airport,Trivandrum International Airport,8.48211956024,76.9200973511,15,AS,IN,IN-KL,Thiruvananthapuram,1,VOTV,TRV,,,http://en.wikipedia.org/wiki/Trivandrum_International_Airport,"Thiruvananthapuram International Airport, Trivandrum Air Force Station"
26434,VABB,large_airport,Chhatrapati Shivaji International Airport,19.0886993408,72.8678970337,39,AS,IN,IN-MM,Mumbai,1,VABB,BOM,,http://www.csia.in/,http://en.wikipedia.org/wiki/Chhatrapati_Shivaji_International_Airport,"Bombay, Sahar International Airport"
26540,VIAR,large_airport,Sri Guru Ram Dass Jee International Airport,31.7096004486,74.7973022461,756,AS,IN,IN-PB,Amritsar,1,VIAR,ATQ,,http://www.aai.aero/allAirports/amritsar_generalinfo.jsp,http://en.wikipedia.org/wiki/Sri_Guru_Ram_Dass_Jee_International_Airport,Amritsar Air Force Station
26618,VOMM,large_airport,Chennai International Airport,12.990005493164062,80.16929626464844,52,AS,IN,IN-TN,Chennai,1,VOMM,MAA,,,http://en.wikipedia.org/wiki/Chennai_International_Airport,
35141,VOHS,large_airport,Rajiv Gandhi International Airport,17.2313175201,78.4298553467,2024,AS,IN,IN-U-A,Hyderabad,1,VOHS,HYD,,http://www.shamshabadairport.com/,http://en.wikipedia.org/wiki/Rajiv_Gandhi_International_Airport,"Shamshabad, Hyderabad"
26496,VECC,large_airport,Netaji Subhash Chandra Bose International Airport,22.654699325561523,88.44670104980469,16,AS,IN,IN-WB,Kolkata,1,VECC,CCU,,,http://en.wikipedia.org/wiki/Netaji_Subhash_Chandra_Bose_International_Airport,"Calcutta, Kolkatta, Dum Dum Air Force Station"
5294,ORMM,large_airport,Basrah International Airport,30.549100875854492,47.66210174560547,11,AS,IQ,IQ-BA,Basrah,1,ORMM,BSR,,,http://en.wikipedia.org/wiki/Basra_International_Airport,
5289,ORBI,large_airport,Baghdad International Airport,33.262500762900004,44.2346000671,114,AS,IQ,IQ-BG,Baghdad,1,ORBI,BGW,,,http://en.wikipedia.org/wiki/Baghdad_International_Airport,"SDA, BIAP, VBC, ORBS, Camp Sather, Saddam International Airport, Al Anbar Airport"
5204,OITT,large_airport,Tabriz International Airport,38.1338996887207,46.23500061035156,4459,AS,IR,IR-01,Tabriz,1,OITT,TBZ,,http://www.tabrizairport.ir/,http://en.wikipedia.org/wiki/Tabriz_International_Airport,IRIAF
5168,OIII,large_airport,Mehrabad International Airport,35.68920135498047,51.31340026855469,3962,AS,IR,IR-07,Tehran,1,OIII,THR,,,http://en.wikipedia.org/wiki/Mehrabad_International_Airport,
5197,OISS,large_airport,Shiraz Shahid Dastghaib International Airport,29.539199829101562,52.58980178833008,4920,AS,IR,IR-14,Shiraz,1,OISS,SYZ,,http://shirazairport.ir/,http://en.wikipedia.org/wiki/Shiraz_International_Airport,
5183,OIMM,large_airport,Mashhad International Airport,36.235198974609375,59.64099884033203,3263,AS,IR,IR-30,Mashhad,1,OIMM,MHD,,,http://en.wikipedia.org/wiki/Mashhad_International_Airport,Shahid Hashemi Nejad Airport
5212,OJAI,large_airport,Queen Alia International Airport,31.7226009369,35.9931983948,2395,AS,JO,JO-AM,Amman,1,OJAI,AMM,,,http://en.wikipedia.org/wiki/Queen_Alia_International_Airport,
5627,RJTT,large_airport,Tokyo International Airport,35.55229949951172,139.77999877929688,35,AS,JP,JP-13,Tokyo,1,RJTT,HND,,http://www.tokyo-airport-bldg.co.jp/,http://en.wikipedia.org/wiki/Tokyo_International_Airport,"TYO, Haneda"
5576,RJGG,large_airport,Chubu Centrair International Airport,34.8583984375,136.80499267578125,15,AS,JP,JP-23,Tokoname,1,RJGG,NGO,,,http://en.wikipedia.org/wiki/Ch%C5%ABbu_Centrair_International_Airport,
5598,RJOO,large_airport,Osaka International Airport,34.785499572753906,135.43800354003906,50,AS,JP,JP-27,Osaka,1,RJOO,ITM,,,http://en.wikipedia.org/wiki/Osaka_International_Airport,"OSA, Itami"
6426,UAFM,large_airport,Manas International Airport,43.0612983704,74.4776000977,2058,AS,KG,KG-C,Bishkek,1,UCFM,FRU,,,http://en.wikipedia.org/wiki/Manas_International_Airport,"UAFM, Manas Air Force Base"
26476,VDSR,large_airport,Siem Reap International Airport,13.410699844400002,103.81300354,60,AS,KH,KH-17,Siem Reap,1,VDSR,REP,,http://www.cambodia-airports.com/siemreap/en,http://en.wikipedia.org/wiki/Siem_Reap_International_Airport,Angkor International Airport
26475,VDPP,large_airport,Phnom Penh International Airport,11.546600341796875,104.84400177001953,40,AS,KH,KH-8,Phnom Penh,1,VDPP,PNH,,http://www.cambodia-airports.com/phnompenh/en/,http://en.wikipedia.org/wiki/Phnom_Penh_International_Airport,Pochentong International Airport
5642,RKPK,large_airport,Gimhae International Airport,35.1795005798,128.93800354,6,AS,KR,KR-26,Busan,1,RKPK,PUS,,http://gimhae.airport.co.kr/eng/index.jsp,http://en.wikipedia.org/wiki/Gimhae_International_Airport,"Kimhae, Pusan"
5653,RKSI,large_airport,Incheon International Airport,37.46910095214844,126.45099639892578,23,AS,KR,KR-28,Seoul,1,RKSI,ICN,,,http://en.wikipedia.org/wiki/Incheon_International_Airport,
5663,RKTU,large_airport,Cheongju International Airport,36.7165985107,127.499000549,191,AS,KR,KR-43,Cheongju,1,RKTU,CJJ,,http://cheongju.airport.co.kr/doc/cheongju_eng/,http://en.wikipedia.org/wiki/Cheongju_Airport,
302303,RKJB,large_airport,Muan International Airport,34.991406,126.382814,35,AS,KR,KR-46,Muan,1,RKJB,MWX,,http://muan.airport.co.kr/doc/muan_eng/,http://en.wikipedia.org/wiki/Muan_International_Airport,"Gwangju, Mokpo"
5639,RKPC,large_airport,Jeju International Airport,33.51129913330078,126.49299621582031,118,AS,KR,KR-49,Jeju City,1,RKPC,CJU,,,http://en.wikipedia.org/wiki/Jeju_International_Airport,
5220,OKBK,large_airport,Kuwait International Airport,29.226600646972656,47.96889877319336,206,AS,KW,KW-FA,Kuwait City,1,OKBK,KWI,,http://www.kuwait-airport.com.kw/Index_e.htm,http://en.wikipedia.org/wiki/Kuwait_International_Airport,Al Mubarak Air Base
6423,UACC,large_airport,Astana International Airport,51.02220153808594,71.46690368652344,1165,AS,KZ,KZ-AKM,Astana,1,UACC,TSE,,,http://en.wikipedia.org/wiki/Astana_International_Airport,
5222,OLBA,large_airport,Beirut Rafic Hariri International Airport,33.820899963378906,35.488399505615234,87,AS,LB,LB-JL,Beirut,1,OLBA,BEY,,http://www.beirutairport.gov.lb/,http://en.wikipedia.org/wiki/Beirut_Rafic_Hariri_International_Airport,"Chaldea, Beirut Air Base, مطار بيروت رفيق الحريري الدولي"
26463,VCBI,large_airport,Bandaranaike International Colombo Airport,7.180759906768799,79.88410186767578,30,AS,LK,LK-1,Colombo,1,VCBI,CMB,,http://www.airport.lk/,http://en.wikipedia.org/wiki/Bandaranaike_International_Airport,"RAF Negombo, Katunayake International Airport"
309579,VCRI,large_airport,Mattala Rajapaksa International Airport,6.284467,81.124128,157,AS,LK,LK-3,,1,VCRI,HRI,VCRI,http://www.mria.lk/,http://en.wikipedia.org/wiki/Mattala_Rajapaksa_International_Airport,Hambantota International Airport
26727,VYMD,large_airport,Mandalay International Airport,21.702199935913086,95.97789764404297,300,AS,MM,MM-04,Mandalay,1,VYMD,MDL,,,http://en.wikipedia.org/wiki/Mandalay_International_Airport,
26744,VYYY,large_airport,Yangon International Airport,16.907300949099998,96.1332015991,109,AS,MM,MM-06,Yangon,1,VYYY,RGN,,http://www.yangonairportonline.com,http://en.wikipedia.org/wiki/Yangon_International_Airport,Rangoon
26589,VMMC,large_airport,Macau International Airport,22.149599075317383,113.59200286865234,20,AS,MO,MO-U-A,Taipa,1,VMMC,MFM,,http://www.macau-airport.gov.mo/en/index.php,http://en.wikipedia.org/wiki/Macau_International_Airport,澳門國際機場
26636,VRMM,large_airport,Malé International Airport,4.191830158233643,73.52909851074219,6,AS,MV,MV-MLE,Malé,1,VRMM,MLE,,http://www.airports.com.mv/,http://en.wikipedia.org/wiki/Mal%C3%A9_International_Airport,
26874,WMKK,large_airport,Kuala Lumpur International Airport,2.745579957962,101.70999908447,69,AS,MY,MY-14,Kuala Lumpur,1,WMKK,KUL,,,http://en.wikipedia.org/wiki/Kuala_Lumpur_International_Airport,KLIA
5242,OOMS,large_airport,Muscat International Airport,23.593299865722656,58.284400939941406,48,AS,OM,OM-MA,Muscat,1,OOMS,MCT,,,http://en.wikipedia.org/wiki/Seeb_International_Airport,"Seeb International Airport, Masqat"
299738,OM-0003,large_airport,Duqm International Airport,19.5,57.6428,380,AS,OM,OM-WU,Duqm,1,OODQ,DQM,,,,
5742,RPVM,large_airport,Mactan Cebu International Airport,10.307499885559,123.97899627686,31,AS,PH,PH-CEB,Lapu-Lapu City,1,RPVM,CEB,,http://www.mactan-cebuairport.com.ph/,http://en.wikipedia.org/wiki/Mactan-Cebu_International_Airport,
5697,RPMD,large_airport,Francisco Bangoy International Airport,7.1255202293396,125.64600372314453,96,AS,PH,PH-DAV,Davao City,1,RPMD,DVO,,,http://en.wikipedia.org/wiki/Francisco_Bangoy_International_Airport,Davao International Airport
5687,RPLC,large_airport,Clark International Airport,15.1859998703,120.559997559,484,AS,PH,PH-PAM,Angeles City,1,RPLC,CRK,,http://www.clarkairport.com/,http://en.wikipedia.org/wiki/Diosdado_Macapagal_International_Airport,"Diosdado Macapagal International Airport, Paliparang Pandaigdig ng Diosdado Macapagal, Clark Air Base"
5689,RPLL,large_airport,Ninoy Aquino International Airport,14.508600235,121.019996643,75,AS,PH,PH-U-A,Manila,1,RPLL,MNL,,,http://en.wikipedia.org/wiki/Ninoy_Aquino_International_Airport,
5274,OPRN,large_airport,Benazir Bhutto International Airport,33.61669921875,73.09919738769531,1668,AS,PK,PK-IS,Islamabad,1,OPRN,ISB,,,http://en.wikipedia.org/wiki/Islamabad_International_Airport,"Chaklala Air Base, Islamabad International Airport, Rawalpindi"
44686,QA-0001,large_airport,Hamad International Airport,25.273056,51.608056,13,AS,QA,QA-DA,Doha,1,OTHH,DOH,,http://dohahamadairport.com/,http://en.wikipedia.org/wiki/Hamad_International_Airport,New Doha International Airport
5112,OERK,large_airport,King Khaled International Airport,24.957599639892578,46.69879913330078,2049,AS,SA,SA-01,Riyadh,1,OERK,RUH,,,http://en.wikipedia.org/wiki/King_Khalid_International_Airport,Riyad
5097,OEJN,large_airport,King Abdulaziz International Airport,21.679599762,39.15650177,48,AS,SA,SA-02,Jeddah,1,OEJN,JED,,,http://en.wikipedia.org/wiki/King_Abdulaziz_International_Airport,"Mecca, Hajj"
5087,OEDF,large_airport,King Fahd International Airport,26.471200942993164,49.79790115356445,72,AS,SA,SA-04,Ad Dammam,1,OEDF,DMM,,,http://en.wikipedia.org/wiki/King_Fahd_International_Airport,
26887,WSSS,large_airport,Singapore Changi International Airport,1.3501900434494019,103.99400329589844,22,AS,SG,SG-04,Singapore,1,WSSS,SIN,,,,
5303,OSDI,large_airport,Damascus International Airport,33.4114990234375,36.51559829711914,2020,AS,SY,SY-DI,Damascus,1,OSDI,DAM,,,http://en.wikipedia.org/wiki/Damascus_International_Airport,مطار دمشق الدولي
5302,OSAP,large_airport,Aleppo International Airport,36.18069839477539,37.22439956665039,1276,AS,SY,SY-HL,Aleppo,1,OSAP,ALP,,http://www.aleppo-airport.com/en/,http://en.wikipedia.org/wiki/Aleppo_International_Airport,مطار حلب الدولي
5306,OSLK,large_airport,Bassel Al-Assad International Airport,35.401100158691406,35.948699951171875,157,AS,SY,SY-LA,Latakia,1,OSLK,LTK,,,http://en.wikipedia.org/wiki/Bassel_Al-Assad_International_Airport,مطار الشهيد باسل الأسد الدولي
26638,VTBD,large_airport,Don Mueang International Airport,13.9125995636,100.607002258,9,AS,TH,TH-10,Bangkok,1,VTBD,DMK,,http://www2.airportthai.co.th/airportnew/bangkok/index.asp?lang=en,http://en.wikipedia.org/wiki/Don_Mueang_International_Airport,"Old Bangkok International Airport, Don Muang Royal Thai Air Force Base"
26647,VTCC,large_airport,Chiang Mai International Airport,18.766799926799997,98.962600708,1036,AS,TH,TH-50,Chiang Mai,1,VTCC,CNX,,,http://en.wikipedia.org/wiki/Chiang_Mai_International_Airport,
4509,LTAC,large_airport,Esenboğa International Airport,40.128101348899996,32.995098114,3125,AS,TR,TR-06,Ankara,1,LTAC,ESB,,,http://en.wikipedia.org/wiki/Esenbo%C4%9Fa_International_Airport,
4515,LTAI,large_airport,Antalya International Airport,36.89870071411133,30.800500869750977,177,AS,TR,TR-07,Antalya,1,LTAI,AYT,,,http://en.wikipedia.org/wiki/Antalya_Airport,
4533,LTBJ,large_airport,Adnan Menderes International Airport,38.2924003601,27.156999588,412,AS,TR,TR-35,İzmir,1,LTBJ,ADB,,http://www.adnanmenderesairport.com,http://en.wikipedia.org/wiki/Adnan_Menderes_Airport,
5516,RCKH,large_airport,Kaohsiung International Airport,22.57710075378418,120.3499984741211,31,AS,TW,TW-KHH,Kaohsiung City,1,RCKH,KHH,,http://www.kia.gov.tw/english/e_index.asp,http://en.wikipedia.org/wiki/Kaohsiung_International_Airport,"Siaogang International Airport, 高雄國際航空站, 小港國際機場"
5528,RCTP,large_airport,Taiwan Taoyuan International Airport,25.077699661254883,121.23300170898438,106,AS,TW,TW-TAO,Taipei,1,RCTP,TPE,,http://www.taoyuanairport.gov.tw/,http://en.wikipedia.org/wiki/Taiwan_Taoyuan_International_Airport,"Chiang Kai Shek International Airport, 中正國際機場, 中正国际机场"
26392,UTTT,large_airport,Tashkent International Airport,41.257900238,69.2811965942,1417,AS,UZ,UZ-TO,Tashkent,1,UTTT,TAS,,,http://en.wikipedia.org/wiki/Tashkent_International_Airport,
26700,VVNB,large_airport,Noi Bai International Airport,21.221200942993164,105.80699920654297,39,AS,VN,VN-15,Hanoi,1,VVNB,HAN,,,http://en.wikipedia.org/wiki/Noi_Bai_International_Airport,"Noibai Airport, Sân bay Quốc tế Nội Bài"
26708,VVTS,large_airport,Tan Son Nhat International Airport,10.8187999725,106.652000427,33,AS,VN,VN-23,Ho Chi Minh City,1,VVTS,SGN,,http://www.tsnairport.hochiminhcity.gov.vn/,http://en.wikipedia.org/wiki/Tan_Son_Nhat_International_Airport,"Tansonnhat, Sài Gòn, Saigon, Sân bay Quốc tế Tân Sơn Nhất"
26697,VVDN,large_airport,Da Nang International Airport,16.043899536132812,108.1989974975586,33,AS,VN,VN-60,Da Nang,1,VVDN,DAD,,,http://en.wikipedia.org/wiki/Da_Nang_International_Airport,"Danang, Cảng Hàng không Quốc tế Đà Nẵng"
3972,LATI,large_airport,Tirana International Airport Mother Teresa,41.4146995544,19.7206001282,126,EU,AL,AL-TR,Tirana,1,LATI,TIA,,http://www.tirana-airport.com/,http://en.wikipedia.org/wiki/Tirana_International_Airport_N%C3%ABn%C3%AB_Tereza,"Rinas International Airport, Aeroporti Nënë Tereza"
4434,LOWW,large_airport,Vienna International Airport,48.110298156738,16.569700241089,600,EU,AT,AT-9,Vienna,1,LOWW,VIE,,http://www.viennaairport.com/en/,http://en.wikipedia.org/wiki/Vienna_International_Airport,
4469,LQSA,large_airport,Sarajevo International Airport,43.82460021972656,18.331499099731445,1708,EU,BA,BA-BIH,Sarajevo,1,LQSA,SJJ,,http://www.sarajevo-airport.ba/,http://en.wikipedia.org/wiki/Sarajevo_International_Airport,
3976,LBPD,large_airport,Plovdiv International Airport,42.06779861450195,24.850799560546875,597,EU,BG,BG-16,Plovdiv,1,LBPD,PDV,,http://www.plovdivairport.com/,http://en.wikipedia.org/wiki/Plovdiv_International_Airport,
4490,LSGG,large_airport,Geneva Cointrin International Airport,46.23809814453125,6.108950138092041,1411,EU,CH,CH-GE,Geneva,1,LSGG,GVA,,http://www.gva.ch/,http://en.wikipedia.org/wiki/Geneva_Cointrin_International_Airport,
4408,LKPR,large_airport,Ruzyně International Airport,50.100799560546875,14.260000228881836,1247,EU,CZ,CZ-PR,Prague,1,LKPR,PRG,,http://www2.prg.aero/en/site/klient/klient_index.htm,http://en.wikipedia.org/wiki/Ruzyn%C4%9B_International_Airport,Letiště Praha-Ruzyně
2223,EDDT,large_airport,Berlin-Tegel International Airport,52.5597000122,13.2876996994,122,EU,DE,DE-BE,Berlin,1,EDDT,TXL,,http://www.berlin-airport.de/en/travellers-txl/index.php,http://en.wikipedia.org/wiki/Berlin-Tegel_International_Airport,"BER, Otto Lilienthal"
2218,EDDM,large_airport,Munich International Airport,48.353801727295,11.786100387573,1487,EU,DE,DE-BY,Munich,1,EDDM,MUC,,http://www.munich-airport.com/,http://en.wikipedia.org/wiki/Munich_International_Airport,"Franz Josef Strauss International Airport, Flughafen München Franz Josef Strauß"
2212,EDDF,large_airport,Frankfurt am Main International Airport,50.0264015198,8.54312992096,364,EU,DE,DE-HE,Frankfurt-am-Main,1,EDDF,FRA,,http://www.frankfurt-airport.de/,http://en.wikipedia.org/wiki/Frankfurt_Airport,"EDAF, Rhein-Main Air Base"
2217,EDDL,large_airport,Düsseldorf International Airport,51.28950119018555,6.766779899597168,147,EU,DE,DE-NW,Düsseldorf,1,EDDL,DUS,,http://www.duesseldorf-international.de/,http://en.wikipedia.org/wiki/D%C3%BCsseldorf_International_Airport,
4004,LEBL,large_airport,Barcelona International Airport,41.297100067139,2.0784599781036,12,EU,ES,ES-CT,Barcelona,1,LEBL,BCN,,http://www.aena.es/csee/Satellite?cid=1045569607459&pagename=subHome&Language=EN_GB&SiteName=BCN&c=Page,http://en.wikipedia.org/wiki/Barcelona_International_Airport,
3997,LEAL,large_airport,Alicante International Airport,38.28219985961914,-0.5581560134887695,142,EU,ES,ES-V,Alicante,1,LEAL,ALC,,http://www.aena.es/csee/Satellite?cid=1049437849176&pagename=subHome&Language=EN_GB&SiteName=ALC&c=Page,http://en.wikipedia.org/wiki/Alicante_Airport,
4185,LFPG,large_airport,Charles de Gaulle International Airport,49.0127983093,2.54999995232,392,EU,FR,FR-J,Paris,1,LFPG,CDG,,http://www.aeroportsdeparis.fr/,http://en.wikipedia.org/wiki/Charles_de_Gaulle_International_Airport,"PAR, Aéroport Roissy-Charles de Gaulle, Roissy Airport"
2389,EGBB,large_airport,Birmingham International Airport,52.453899383499994,-1.74802994728,327,EU,GB,GB-ENG,Birmingham,1,EGBB,BHX,,http://www.bhx.co.uk/,http://en.wikipedia.org/wiki/Birmingham_International_Airport_(United_Kingdom),
2417,EGGD,large_airport,Bristol International Airport,51.3827018737793,-2.719089984893799,622,EU,GB,GB-ENG,Bristol,1,EGGD,BRS,,http://www.bristolairport.co.uk/,http://en.wikipedia.org/wiki/Bristol_International_Airport,Lulsgate Bottom
2481,EGTE,large_airport,Exeter International Airport,50.73440170288086,-3.4138898849487305,102,EU,GB,GB-ENG,Exeter,1,EGTE,EXT,,http://www.exeter-airport.co.uk/,http://en.wikipedia.org/wiki/Exeter_International_Airport,
2475,EGSH,large_airport,Norwich International Airport,52.6758003235,1.28278005123,117,EU,GB,GB-ENG,Norwich,1,EGSH,NWI,,http://www.norwichairport.co.uk/,http://en.wikipedia.org/wiki/Norwich_International_Airport,RAF Horsham St Faith
2385,EGAA,large_airport,Belfast International Airport,54.6575012207,-6.2158298492399995,268,EU,GB,GB-NIR,Belfast,1,EGAA,BFS,,http://www.belfastairport.com/,http://en.wikipedia.org/wiki/Belfast_International_Airport,"Aldergrove, RAF Aldergrove"
2461,EGPF,large_airport,Glasgow International Airport,55.8718986511,-4.43306016922,26,EU,GB,GB-SCT,Glasgow,1,EGPF,GLA,,http://www.glasgowairport.com/,http://en.wikipedia.org/wiki/Glasgow_International_Airport,"Port-adhair Eadar-nàiseanta Ghlaschu, RAF Abbotsinch, RAF Ayr"
2415,EGFF,large_airport,Cardiff International Airport,51.39670181274414,-3.343329906463623,220,EU,GB,GB-WLS,Cardiff,1,EGFF,CWL,,http://www.cwlfly.com/,http://en.wikipedia.org/wiki/Cardiff_International_Airport,Rhoose
4293,LGTS,large_airport,Thessaloniki Macedonia International Airport,40.51969909667969,22.97089958190918,22,EU,GR,GR-54,Thessaloniki,1,LGTS,SKG,,,http://en.wikipedia.org/wiki/Thessaloniki_International_Airport%2C_%22Macedonia%22,Makedonia. Macedonia. Salonica
4258,LGIR,large_airport,Heraklion International Nikos Kazantzakis Airport,35.3396987915,25.180299758900002,115,EU,GR,GR-91,Heraklion,1,LGIR,HER,,,http://en.wikipedia.org/wiki/Heraklion_International_Airport%2C_%22Nikos_Kazantzakis%22,Crete Island
4251,LGAV,large_airport,Eleftherios Venizelos International Airport,37.9364013672,23.9444999695,308,EU,GR,GR-A1,Athens,1,LGAV,ATH,,http://www.aia.gr,http://en.wikipedia.org/wiki/Athens_International_Airport,
4296,LHBP,large_airport,Budapest Ferenc Liszt International Airport,47.436901092499994,19.255599975599996,495,EU,HU,HU-PE,Budapest,1,LHBP,BUD,,http://www.bud.hu/english,http://en.wikipedia.org/wiki/Budapest_Ferenc_Liszt_International_Airport,"Ferihegyi nemzetközi repülőtér, Budapest Liszt Ferenc international Airport"
123,BIKF,large_airport,Keflavik International Airport,63.98500061035156,-22.605600357055664,171,EU,IS,IS-2,Reykjavík,1,BIKF,KEF,,,http://en.wikipedia.org/wiki/Keflav%C3%ADk_International_Airport,Keflavik Naval Air Station
4340,LIMC,large_airport,Malpensa International Airport,45.6305999756,8.728110313419998,768,EU,IT,IT-25,Milan,1,LIMC,MXP,,http://www.sea-aeroportimilano.it/en/malpensa/index.phtml,http://en.wikipedia.org/wiki/Malpensa_Airport,MIL
4379,LIRP,large_airport,Pisa International Airport,43.683898925799994,10.3927001953,6,EU,IT,IT-52,Pisa,1,LIRP,PSA,,http://www.pisa-airport.com/,http://en.wikipedia.org/wiki/Pisa_International_Airport,"Galileo Galilei Airport, San Giusto Airport"
4368,LIPZ,large_airport,Venice Marco Polo Airport,45.5052986145,12.3519001007,7,EU,IT,IT-34,Venice,1,LIPZ,VCE,,http://www.veniceairport.com/core/index.jsp?_requestid=37300&language=en,http://en.wikipedia.org/wiki/Venice_Marco_Polo_Airport,Venezia Tessera
4370,LIRA,large_airport,Ciampino–G. B. Pastine International Airport,41.7994003296,12.5949001312,427,EU,IT,IT-62,Roma,1,LIRA,CIA,,,http://en.wikipedia.org/wiki/Ciampino%E2%80%93G._B._Pastine_International_Airport,"ROM, Giovan Battista Pastine Airport"
4378,LIRN,large_airport,Naples International Airport,40.8860015869,14.290800094600002,294,EU,IT,IT-72,Nápoli,1,LIRN,NAP,,http://www.portal.gesac.it/,http://en.wikipedia.org/wiki/Naples_International_Airport,"Capodichino Airport, Aeroporto di Napoli-Capodichino, Aeroporto Internazionale di Napoli"
4614,BKPR,large_airport,Priština International Airport,42.57279968261719,21.03580093383789,1789,EU,KS,KS-U-A,Prishtina,1,BKPR,PRN,,http://www.airportpristina.com/,http://en.wikipedia.org/wiki/Pri%C5%A1tina_International_Airport,"LYPR, Pristina, Slatina Air Base"
2766,EYVI,large_airport,Vilnius International Airport,54.63410186767578,25.28580093383789,646,EU,LT,LT-VL,Vilnius,1,EYVI,VNO,,http://www.vilnius-airport.lt/en/,http://en.wikipedia.org/wiki/Vilnius_International_Airport,
2563,ELLX,large_airport,Luxembourg-Findel International Airport,49.626598358154,6.2115201950073,1234,EU,LU,LU-L,Luxembourg,1,ELLX,LUX,,http://www.lux-airport.lu/en/,http://en.wikipedia.org/wiki/Luxembourg-Findel_International_Airport,
2758,EVRA,large_airport,Riga International Airport,56.92359924316406,23.971099853515625,36,EU,LV,LV-RIX,Riga,1,EVRA,RIX,,http://www.riga-airport.com/,http://en.wikipedia.org/wiki/Riga_International_Airport,
4427,LMML,large_airport,Malta International Airport,35.857498,14.4775,300,EU,MT,MT-25,Luqa,1,LMML,MLA,,http://www.maltairport.com/en/home.htm,http://en.wikipedia.org/wiki/Malta_International_Airport,"Luqa Airport,Valletta,Gudja,RAF Luqa"
2609,EPKK,large_airport,John Paul II International Airport Kraków-Balice Airport,50.077701568603516,19.784799575805664,791,EU,PL,PL-MA,Kraków,1,EPKK,KRK,,http://lotnisko-balice.pl/en.html,http://en.wikipedia.org/wiki/John_Paul_II_International_Airport_Krak%C3%B3w-Balice,Krakov
2613,EPKT,large_airport,Katowice International Airport,50.4743003845,19.079999923699997,995,EU,PL,PL-SL,Katowice,1,EPKT,KTW,,,http://en.wikipedia.org/wiki/Katowice_International_Airport,"Pyrzowice, Dąbrowa Górnicza"
4482,LROP,large_airport,Henri Coandă International Airport,44.572200775146484,26.10219955444336,314,EU,RO,RO-B,Bucharest,1,LROP,OTP,,http://www.otp-airport.ro/www/index.html?&setLanguage=EN,http://en.wikipedia.org/wiki/Henri_Coand%C4%83_International_Airport,"BUH, Otopeni Airport, RoAF 90th Airlift Base"
26411,UWUU,large_airport,Ufa International Airport,54.557498931885,55.874401092529,449,EU,RU,RU-BA,Ufa,1,UWUU,UFA,,http://www.airportufa.ru/en/,http://en.wikipedia.org/wiki/Ufa_International_Airport,Международный аэропорт Уфа
6519,URSS,large_airport,Sochi International Airport,43.449901580811,39.956600189209,89,EU,RU,RU-KDA,Sochi,1,URSS,AER,,http://basel.aero/en/sochi/,http://en.wikipedia.org/wiki/Sochi_International_Airport,"Black Sea, Международный Аэропорт Сочи"
26396,UUEE,large_airport,Sheremetyevo International Airport,55.972599029541,37.414600372314,622,EU,RU,RU-MOS,Moscow,1,UUEE,SVO,,http://www.svo.aero/en/,http://en.wikipedia.org/wiki/Sheremetyevo_International_Airport,"MOW, Международный аэропорт Шереметьево"
26412,UWWW,large_airport,Kurumoch International Airport,53.504901885986,50.16429901123,477,EU,RU,RU-SAM,Samara,1,UWWW,KUF,,http://airport.samara.ru/en/,http://en.wikipedia.org/wiki/Kurumoch_International_Airport,
26404,UWKD,large_airport,Kazan International Airport,55.606201171875,49.278701782227,411,EU,RU,RU-TA,Kazan,1,UWKD,KZN,,http://www.kazan.aero/en/,http://en.wikipedia.org/wiki/Kazan_International_Airport,
4528,LTBA,large_airport,Atatürk International Airport,40.9768981934,28.814599990799998,163,EU,TR,TR-34,Istanbul,1,LTBA,IST,,http://www.ataturkairport.com/eng/,http://en.wikipedia.org/wiki/Atat%C3%BCrk_International_Airport,"Ataturk, Yeşilköy, Yesilkoy"
6468,UKCC,large_airport,Donetsk International Airport,48.07360076904297,37.73970031738281,791,EU,UA,UA-14,Donetsk,1,UKCC,DOK,,http://airport.dn.ua/,http://en.wikipedia.org/wiki/Donetsk_International_Airport,"Міжнародний аеропорт ""Донецьк"""
6467,UKBB,large_airport,Boryspil International Airport,50.345001220703125,30.894699096679688,427,EU,UA,UA-32,Kiev,1,UKBB,KBP,,http://www.airport-borispol.kiev.ua/,http://en.wikipedia.org/wiki/Boryspil_International_Airport,"Borispol, Міжнародний аеропорт ""Бориспіль"""
6474,UKFF,large_airport,Simferopol International Airport,45.05220031738281,33.975101470947266,639,EU,UA,UA-43,Simferopol,1,UKFF,SIP,,http://www.airport.crimea.ua/,http://en.wikipedia.org/wiki/Simferopol_International_Airport,"Міжнародний аеропорт ""Сімферополь"""
6487,UKOO,large_airport,Odessa International Airport,46.42679977416992,30.67650032043457,172,EU,UA,UA-51,Odessa,1,UKOO,ODS,,http://www.airport.od.ua/,http://en.wikipedia.org/wiki/Odessa_International_Airport,"Odesa Central, Міжнародний аеропорт Одеса"
6476,UKHH,large_airport,Kharkiv International Airport,49.924800872802734,36.290000915527344,508,EU,UA,UA-63,Kharkiv,1,UKHH,HRK,,http://www.airport.kharkov.ua/,http://en.wikipedia.org/wiki/Kharkiv_International_Airport,"Osnova International Airport, Міжнародний аеропорт ""Харків"""
27131,YSCB,large_airport,Canberra International Airport,-35.30690002441406,149.19500732421875,1886,OC,AU,AU-ACT,Canberra,1,YSCB,CBR,,,http://en.wikipedia.org/wiki/Canberra_International_Airport,RAAF Base Fairbairn
27145,YSSY,large_airport,Sydney Kingsford Smith International Airport,-33.94609832763672,151.177001953125,21,OC,AU,AU-NSW,Sydney,1,YSSY,SYD,,http://www.sydneyairport.com.au/,http://en.wikipedia.org/wiki/Kingsford_Smith_International_Airport,RAAF Station Mascot
26901,YBBN,large_airport,Brisbane International Airport,-27.384199142456055,153.11700439453125,13,OC,AU,AU-QLD,Brisbane,1,YBBN,BNE,,,http://en.wikipedia.org/wiki/Brisbane_Airport,
27066,YMML,large_airport,Melbourne International Airport,-37.673301696777344,144.84300231933594,434,OC,AU,AU-VIC,Melbourne,1,YMML,MEL,,,http://en.wikipedia.org/wiki/Melbourne_Airport,
27119,YPPH,large_airport,Perth International Airport,-31.94029998779297,115.96700286865234,67,OC,AU,AU-WA,Perth,1,YPPH,PER,,,http://en.wikipedia.org/wiki/Perth_Airport,
4958,NCRG,large_airport,Rarotonga International Airport,-21.2026996613,-159.805999756,19,OC,CK,CK-U-A,Avarua,1,NCRG,RAR,,,http://en.wikipedia.org/wiki/Rarotonga_International_Airport,
5433,PGUM,large_airport,Antonio B. Won Pat International Airport,13.4834003448,144.796005249,298,OC,GU,GU-U-A,"Hagåtña, Guam International Airport",1,PGUM,GUM,GUM,http://www.guamairport.com/,http://en.wikipedia.org/wiki/Antonio_B._Won_Pat_International_Airport,Agana
5023,NZAA,large_airport,Auckland International Airport,-37.008098602299995,174.792007446,23,OC,NZ,NZ-AUK,Auckland,1,NZAA,AKL,,http://www.auckland-airport.co.nz/,http://en.wikipedia.org/wiki/Auckland_International_Airport,
5026,NZCH,large_airport,Christchurch International Airport,-43.48939895629883,172.53199768066406,123,OC,NZ,NZ-CAN,Christchurch,1,NZCH,CHC,,http://www.christchurchairport.co.nz/,http://en.wikipedia.org/wiki/Christchurch_International_Airport,
5063,NZWN,large_airport,Wellington International Airport,-41.3272018433,174.804992676,41,OC,NZ,NZ-WGN,Wellington,1,NZWN,WLG,,http://www.wellingtonairport.co.nz/,http://en.wikipedia.org/wiki/Wellington_International_Airport,
67,AYPY,large_airport,Port Moresby Jacksons International Airport,-9.443380355834961,147.22000122070312,146,OC,PG,PG-NCD,Port Moresby,1,AYPY,POM,,,http://en.wikipedia.org/wiki/Jacksons_International_Airport,
5781,SAEZ,large_airport,Ministro Pistarini International Airport,-34.8222,-58.5358,67,SA,AR,AR-B,Buenos Aires,1,SAEZ,EZE,EZE,http://www.aa2000.com.ar/index.php,http://en.wikipedia.org/wiki/Ministro_Pistarini_International_Airport,BUE
5977,SBSV,large_airport,Deputado Luiz Eduardo Magalhães International Airport,-12.9086112976,-38.3224983215,64,SA,BR,BR-BA,Salvador,1,SBSV,SSA,,,http://en.wikipedia.org/wiki/Deputado_Lu%C3%ADs_Eduardo_Magalh%C3%A3es_International_Airport,
5872,SBBR,large_airport,Presidente Juscelino Kubistschek International Airport,-15.86916732788086,-47.920833587646484,3497,SA,BR,BR-DF,Brasília,1,SBBR,BSB,,http://www.infraero.gov.br/usa/aero_prev_home.php?ai=146,http://en.wikipedia.org/wiki/Bras%C3%ADlia_International_Airport,http://www.infraero.gov.br/usa/aero_prev_home.php?ai=146
5882,SBCF,large_airport,Tancredo Neves International Airport,-19.62444305419922,-43.97194290161133,2715,SA,BR,BR-MG,Belo Horizonte,1,SBCF,CNF,,http://www.infraero.gov.br/usa/aero_prev_home.php?ai=207,http://en.wikipedia.org/wiki/Tancredo_Neves_International_Airport,http://www.infraero.gov.br/usa/aero_prev_home.php?ai=207
5867,SBBE,large_airport,Val de Cans/Júlio Cezar Ribeiro International Airport,-1.3792500495900002,-48.4762992859,54,SA,BR,BR-PA,Belém,1,SBBE,BEL,,http://www.infraero.gov.br/index.php/br/aeroportos/para/aeroporto-internacional-de-belem.html,http://en.wikipedia.org/wiki/Val_de_Cans_International_Airport,
5906,SBGL,large_airport,RIOgaleão – Tom Jobim International Airport,-22.809999465900002,-43.25055694579999,28,SA,BR,BR-RJ,Rio De Janeiro,1,SBGL,GIG,,,http://en.wikipedia.org/wiki/Rio_de_Janeiro-Gale%C3%A3o_International_Airport,Galeão - Antônio Carlos Jobim International Airport
313262,SBSG,large_airport,Governador Aluízio Alves International Airport,-5.768056,-35.376111,272,SA,BR,BR-RN,Natal,1,SBSG,NAT,,http://www.natal.aero,http://en.wikipedia.org/wiki/Greater_Natal_International_Airport,"Natal, Greater Natal International Airport,  Augusto Severo International Airport"
5901,SBFL,large_airport,Hercílio Luz International Airport,-27.670278549194336,-48.5525016784668,16,SA,BR,BR-SC,Florianópolis,1,SBFL,FLN,,http://www.infraero.gov.br/usa/aero_prev_home.php?ai=228,http://en.wikipedia.org/wiki/Herc%C3%ADlio_Luz_International_Airport,http://www.infraero.gov.br/usa/aero_prev_home.php?ai=228
5910,SBGR,large_airport,Guarulhos - Governador André Franco Montoro International Airport,-23.435556411743164,-46.47305679321289,2459,SA,BR,BR-SP,São Paulo,1,SBGR,GRU,,,http://en.wikipedia.org/wiki/S%C3%A3o_Paulo-Guarulhos_International_Airport,
6015,SCEL,large_airport,Comodoro Arturo Merino Benítez International Airport,-33.393001556396484,-70.78579711914062,1555,SA,CL,CL-RM,Santiago,1,SCEL,SCL,,http://www.aeropuertosantiago.cl/ingles/index.php,http://en.wikipedia.org/wiki/Comodoro_Arturo_Merino_Ben%C3%ADtez_International_Airport,
6104,SKBO,large_airport,El Dorado International Airport,4.70159,-74.1469,8361,SA,CO,CO-CUN,Bogota,1,SKBO,BOG,BOG,,http://en.wikipedia.org/wiki/El_Dorado_International_Airport,
308273,SEQM,large_airport,Mariscal Sucre International Airport,-0.129166666667,-78.3575,7841,SA,EC,EC-P,Quito,1,SEQM,UIO,UIO,,http://en.wikipedia.org/wiki/Mariscal_Sucre_International_Airport,Nuevo Aeropuerto Internacional Mariscal Sucre
6061,SELT,large_airport,Cotopaxi International Airport,-0.9068329930310001,-78.6157989502,9205,SA,EC,EC-X,Latacunga,1,SELT,LTX,,http://www.dgac.gob.ec/latacunga/,http://es.wikipedia.org/wiki/Aeropuerto_Internacional_Cotopaxi,"Latacunga, Vulcano, Ecuador, Cargo, Long runway, Height"
6243,SPZO,large_airport,Alejandro Velasco Astete International Airport,-13.535699844400002,-71.9387969971,10860,SA,PE,PE-CUS,Cusco,1,SPZO,CUZ,,http://www.corpac.gob.pe/,http://en.wikipedia.org/wiki/Alejandro_Velasco_Astete_International_Airport,
6217,SPIM,large_airport,Jorge Chávez International Airport,-12.021900177,-77.11430358890001,113,SA,PE,PE-LIM,Lima,1,SPIM,LIM,,http://www.lap.com.pe/,http://en.wikipedia.org/wiki/Jorge_Ch%C3%A1vez_International_Airport,
6247,SUMU,large_airport,Carrasco International /General C L Berisso Airport,-34.838401794433594,-56.030799865722656,105,SA,UY,UY-MO,Montevideo,1,SUMU,MVD,,,http://en.wikipedia.org/wiki/Carrasco_International_Airport,
